CUTE-1 (CO-55)          
1 27844U 03031E   26164.94626113  .00000270  00000+0  13581-3 0  9992
2 27844  98.6736 173.5458 0009311 187.4250 172.6793 14.24333937191218
CUBESAT XI-IV (CO-57)   
1 27848U 03031J   26164.58167660  .00000234  00000+0  12199-3 0  9997
2 27848  98.6767 172.9014 0008793 208.1063 151.9642 14.23619125190861
CUBESAT XI-V            
1 28895U 05043F   26164.39375696  .00001317  00000+0  21486-3 0  9996
2 28895  98.2979 319.9359 0013416 213.2696 146.7669 14.72622172101196
CUTE-1.7+APD II (CO-65) 
1 32785U 08021C   26164.93421374  .00004989  00000+0  31577-3 0  9993
2 32785  97.8270 146.2850 0010183  49.3116 310.8995 15.09426226984703
CANX-2                  
1 32790U 08021H   26164.89878971  .00004690  00000+0  32935-3 0  9991
2 32790  97.8622 144.6119 0011507  60.3061 299.9309 15.05592573984311
SEEDS II (CO-66)        
1 32791U 08021J   26164.93655223  .00018728  00000+0  59582-3 0  9994
2 32791  97.7509 162.6789 0001549  14.7739 345.3547 15.32650243986791
SWISSCUBE               
1 35932U 09051B   26164.67936614  .00000937  00000+0  19470-3 0  9990
2 35932  98.4039  72.5065 0005755 215.4372 144.6447 14.62475781888647
BEESAT-1                
1 35933U 09051C   26164.68697727  .00000783  00000+0  16700-3 0  9993
2 35933  98.3968  72.1570 0004054 230.6846 129.3995 14.61715545888676
ITUPSAT1                
1 35935U 09051E   26164.67480330  .00000706  00000+0  15577-3 0  9990
2 35935  98.4053  71.3404 0006156 247.1048 112.9502 14.60435999888227
TISAT 1                 
1 36799U 10035E   26164.78524745  .00021423  00000+0  70389-3 0  9995
2 36799  98.0709 111.0328 0000924 172.0617 188.0637 15.31591266867186
AEROCUBE 4.5A           
1 38767U 12048K   26164.77602545  .00400652  69560-4  10945-2 0  9999
2 38767  64.6249  39.3549 0019794 221.0404 138.9269 15.93464076372117
STRAND-1                
1 39090U 13009E   26164.78378247  .00000262  00000+0  10240-3 0  9998
2 39090  98.3921 345.1020 0007577 236.8114 123.2347 14.37161544696572
BRITE-AUSTRIA           
1 39091U 13009F   26164.93449253  .00000159  00000+0  68644-4 0  9999
2 39091  98.3993 344.4507 0009039 247.4517 112.5714 14.36540938696581
NEE-01 PEGASO           
1 39151U 13018B   26164.38011978  .00002095  00000+0  20384-3 0  9993
2 39151  98.1215 308.4049 0012775 171.4218 188.7221 14.93643611710130
POPACS 2                
1 39269U 13055E   26164.68705035  .00013650  00000+0  23173-3 0  9999
2 39269  80.9899 148.1985 0416895 205.0173 153.0328 14.91130310662695
POPACS 3                
1 39270U 13055F   26164.47752371  .00009975  00000+0  23442-3 0  9997
2 39270  81.0022 233.2084 0552493  81.2860 285.0480 14.56060284638012
ZACUBE-1 (TSHEPISOSAT)  
1 39417U 13066B   26164.94118747  .00003518  00000+0  27465-3 0  9993
2 39417  97.8083 127.2606 0040455 259.0353 100.6319 15.01171980680243
WNISAT-1                
1 39423U 13066H   26164.91704059  .00000756  00000+0  14667-3 0  9995
2 39423  97.7197 314.3055 0161830 241.9672 116.5080 14.58057420666256
TRITON-1                
1 39427U 13066M   26164.98657353  .00002666  00000+0  32322-3 0  9990
2 39427  97.8255  74.8667 0088363 244.5062 114.6991 14.81698808673619
GOMX-1                  
1 39430U 13066Q   26164.91747219  .00002271  00000+0  34412-3 0  9992
2 39430  97.6487   5.5875 0130204  87.9333 273.6778 14.69450187669438
CUBEBUG-2 (LO-74)       
1 39440U 13066AA  26164.84782956  .00004574  00000+0  42317-3 0  9993
2 39440  97.8902 113.8118 0058639  39.7873 320.7624 14.93736485676494
NEE-02 KRYSAOR          
1 39441U 13066AB  26164.30532468  .00002401  00000+0  26597-3 0  9995
2 39441  97.8891 103.5477 0067725  82.6389 278.2517 14.86602186675625
FUNCUBE-1 (AO-73)       
1 39444U 13066AE  26164.87461990  .00007372  00000+0  45803-3 0  9994
2 39444  97.8267 136.2511 0035377 212.6416 147.2626 15.09452478679163
UWE-3                   
1 39446U 13066AG  26164.80677422  .00004526  00000+0  38955-3 0  9996
2 39446  97.8688 120.8577 0048115 332.4032  27.4636 14.96999955677071
BRITE-CA1 (TORONTO)     
1 40020U 14033L   26164.91233455  .00000658  00000+0  10669-3 0  9991
2 40020  97.9734 293.9007 0077281 287.6929  71.5853 14.72672671641738
DUCHIFAT-1              
1 40021U 14033M   26164.69523286  .00104898  00000+0  11045-2 0  9990
2 40021  98.0473 223.3664 0003522 119.5558 240.6051 15.63932661655200
NANOSATC-BR1            
1 40024U 14033Q   26164.02358310  .00017945  00000+0  59503-3 0  9992
2 40024  98.0725 196.0424 0004015 173.7192 186.4098 15.31330706653345
QB50P1                  
1 40025U 14033R   26164.85471683  .00008675  00000+0  42732-3 0  9999
2 40025  98.0960 175.7668 0007543 228.5229 131.5356 15.18214076652523
QB50P2                  
1 40032U 14033Y   26164.93008995  .00007288  00000+0  39256-3 0  9994
2 40032  98.0744 161.6074 0007696 173.7222 186.4107 15.15121608652178
PERSEUS-M2              
1 40037U 14033AD  26164.91844775  .00001200  00000+0  11381-3 0  9998
2 40037  97.9954 115.3923 0011102 316.2598  43.7742 14.95499611650290
